#dP2018  5 10  0  0  0.00000000      96 __u+U ITR00 FIT  IAC
## 2000 345600.00000000   900.00000000 58248 0.0000000000000
+   85   C01C02C03C04C05C06C07C08C09C10C11C12C13C14E01E02E03
+        E04E05E07E08E09E12E14E18E19E24E26E30G01G02G03G05G06
+        G07G08G09G10G11G12G13G14G15G16G17G18G19G20G21G22G23
+        G24G25G26G27G28G29G30G31G32J01J02J03R01R02R03R04R07
+        R08R09R10R11R13R14R15R16R17R18R19R20R21R22R23R24R26
++        12  0 12 13 12  9  9  9  9  8  8  8  8  8  6  6  6
++         6  6  7  6  6  6  6  7  6  6  7  7  3  3  3  4  3
++         4  3  3  4  4  4  4  4  4  3  3  4  3  4  5  3  3
++         4  3  4  4  4  4  4  3  4 11 10 11  6  5  5  6  6
++         6  6  6  5  5  5  5  5  5  5  5  5  5  6  5  6  8
%c M  cc GPS ccc cccc cccc cccc cccc ccccc ccccc ccccc ccccc
%c cc cc ccc ccc cccc cccc cccc cccc ccccc ccccc ccccc ccccc
%f  0.0000000  0.000000000  0.00000000000  0.000000000000000
%f  0.0000000  0.000000000  0.00000000000  0.000000000000000
%i    0    0    0    0      0      0      0      0         0
%i    0    0    0    0      0      0      0      0         0
/* INFORMATION & ANALYSIS CENTER (IAC) OF MCC   (RAPID DATA)
/* S/V CLOCKS ARE ALIGNED TO GPS & GLONASS TIME RESPECTIVELY
/* USING THE BROADCAST EPHEMERIS                            
/* PCV:IGS14_1992 OL/AL:FES2004  NONE     YN ORB:CoN CLK:CoN
*  2018 05 10 10  0  0.00000000
PC01 -32330.252425  27041.095479    395.502280   -317.188139
PC02      0.000000      0.000000      0.000000 999999.999999
PC03 -14839.378246  39478.184707    898.281805    252.829798
PC04 -39619.686913  14438.298264    465.282682   -135.144103
PC05  21848.199226  36064.057871    434.879282   -503.791604
PC06 -22375.189611  22941.962935 -27288.254498     15.276816
PC07 -17575.375640  37650.482140  -5403.614999    155.618458
PC08  -6698.828454  24846.676373  33525.723613    331.121031
PC09  -4826.542283  24639.793112 -33724.885338   -143.082007
PC10  -6847.714129  40521.096960   8670.067566   -220.835660
PC11  22375.450482  -1652.381349 -16582.646123   -501.964492
PC12  25210.333170  12053.523340    750.138739    438.666468
PC13   5476.879496  33499.854561  25173.484401   -325.030404
PC14  24395.265853 -11381.588212  -7182.960199    293.457453
PE01   3555.821416  25155.970312  15179.458545   -341.263647
PE02  -3583.269372 -25138.934384 -15212.461030     13.111702
PE03  -8537.573582 -15298.290901  23866.984813    -30.433567
PE04  25566.867762   3821.395439 -14403.450287    -31.302766
PE05  13542.847931 -17836.330023  19362.395230    268.296038
PE07 -27661.417943   9920.820571  -3518.703384     35.609950
PE08 -25564.590119  -3522.569012  14503.223645   6587.708346
PE09  27583.523306 -10165.463487   3523.751028   6796.239441
PE12  23946.111221  14515.075509  -9549.482337   4124.458397
PE14  20038.040078 -12040.264395 -19730.899543   6585.428809
PE18 -24971.260679   1190.678743   8735.118707   6219.400962
PE19   6492.872735  15822.018790 -24149.175063     22.158473
PE24  17073.030157 -14361.277357  19430.674776   6714.558992
PE26  -2592.514591  18963.919949  22582.161171   5954.508422
PE30 -14645.519384  -7601.223691 -24587.335471   5852.481349
PG01 -15842.534510  -1025.633377  21197.919878    -46.740773
PG02  14463.874560  21302.713543  -6455.841634    119.745354
PG03 -20350.630141   8607.761087  14678.768193     67.548046
PG05  11090.473077  10990.403792 -21576.088120     -8.223083
PG06   5613.006113  25358.842395   5521.901349    404.296747
PG07  -8815.691884  15552.703715 -19277.489303    194.158219
PG08 -26170.005404  -4832.375055  -1223.768797   -100.758970
PG09 -17901.372028   9603.335714 -17147.145520    513.450125
PG10   8229.092893 -22541.054865  11256.224107    184.052394
PG11 -20542.778689  -2952.172505  15935.894629   -736.518796
PG12  19748.833790  -4940.468345  16760.415477    334.601781
PG13  21659.768464  12625.320634  -8874.827026    -94.578892
PG14 -10215.739676 -16072.361758  18880.487479    -96.791759
PG15  26635.191466   2666.861146   -691.772510   -354.423300
PG16  -9333.984804 -11451.766354 -22207.018838     25.248700
PG17    158.017382  15171.252537  22195.379367    -99.381837
PG18 -17460.936631 -10028.649628  16957.300021      7.247459
PG19   7973.053488  15680.854278  19549.419036   -437.459059
PG20  17941.079621 -18454.354212  -6579.182285    507.823256
PG21   5038.632663 -19159.549955 -16897.934158   -396.925685
PG22 -18253.432979     48.685718  19539.725343   -386.696161
PG23 -25951.117617    723.095083  -6314.820075   -217.227430
PG24  17350.897220   4391.783562  19590.783759    -49.549317
PG25  19281.277987 -17020.094755   5929.208283   -582.817970
PG26  -1059.068420 -19328.350055 -18137.675252   -154.186553
PG27 -19783.672624 -12182.440682 -13184.372639    369.341882
PG28 -12112.569871  21777.455842   9874.331637    713.919085
PG29  20525.092509  -6057.887117 -15741.353827    452.426318
PG30  -2624.510718  22888.789506 -13070.731067     75.733035
PG31  -5904.280207 -25384.434234   3807.197639    122.665946
PG32    439.001090 -15383.311826  21687.244857   -511.306355
PJ01 -34228.552141  24677.072681   4909.962289   -268.041390
PJ02 -18978.929608  28892.065677 -19956.063315    -22.982344
PJ03 -30111.292019  24031.983683  22268.094868    -15.397946
PR01  16665.080311 -14732.842885  12507.727995     26.028585
PR02  -2088.591136 -11014.412792  22952.365697    309.024799
PR03 -18079.343082  -1086.857174  18025.191615    131.789076
PR04 -23464.636105   9789.851663   2177.433965    260.382059
PR07  18321.101066    801.232979 -17674.073878    -37.216170
PR08  23516.216478  -9486.624735  -2701.118554     23.239028
PR09   2265.062033  23510.117826   9560.203649     28.960296
PR10   8935.156575  10174.786311  21572.668228     24.129235
PR11  11001.882671  -9597.707059  20937.084764    -28.453493
PR13  -2681.093068 -23405.588766  -9812.356492    -10.272982
PR14  -9144.467748 -10465.750972 -21386.219421     27.108057
PR15 -10913.798078   5502.212320 -22402.407152     -9.970130
PR16  -6109.553002  23172.325176  -8925.621562     92.194677
PR17 -21284.000615 -13837.640315   2349.414957    131.306141
PR18 -18324.550115  -3243.308127  17494.650482    195.029779
PR19  -5099.392252   9272.419926  23209.305435    -52.071291
PR20  11980.978536  17117.313145  14598.219361   -337.441350
PR21  21363.465573  13698.109358  -2659.429262     17.124179
PR22  17068.996407   1724.251229 -18815.413006    -41.713070
PR23   1420.706246 -11633.936079 -22664.461328    152.767107
PR24 -12991.987557 -17041.838383 -13878.917392   -166.099096
PR26  11824.124325  16849.487789  15087.210793     18.635607
EOF
